IRIDIUM 36 [-]          
1 24967U 97056C   23320.36823988  .00000565  00000+0  18590-3 0  9993
2 24967  86.3988  56.0103 0002278  93.7163 266.4294 14.36509730369093
IRIDIUM 39 [-]          
1 25042U 97069D   23320.36691382  .00000939  00000+0  24952-3 0  9997
2 25042  86.3891  99.0464 0020451  79.1302 281.2201 14.47497680365185
IRIDIUM 38 [-]          
1 25043U 97069E   23320.44350011  .00000624  00000+0  20424-3 0  9999
2 25043  86.3930 116.4767 0001990 151.8460 208.2846 14.36964773362811
IRIDIUM 42 [-]          
1 25077U 97077A   23320.38307297  .00000558  00000+0  18824-3 0  9993
2 25077  86.3936 121.9675 0001824 107.6780 252.4615 14.35272811358143
IRIDIUM 44 [-]          
1 25078U 97077B   23320.35451566  .00000655  00000+0  20559-3 0  9996
2 25078  86.3927 105.4542 0003733 110.0721 250.0880 14.39072053360420
IRIDIUM 45 [-]          
1 25104U 97082A   23320.44946551  .00011140  00000+0  71153-3 0  9992
2 25104  86.3735 322.0850 0174165 293.6433  64.6598 14.96759780364827
IRIDIUM 24 [-]          
1 25105U 97082B   23320.42759925  .00000650  00000+0  19675-3 0  9993
2 25105  86.3888 325.3913 0011449 177.3857 182.7405 14.40830963359843
IRIDIUM 51 [-]          
1 25262U 98018A   23320.00458657  .00011772  00000+0  64455-3 0  9992
2 25262  86.3916 332.7346 0160113 247.7770 110.6414 15.03685154359154
